start=new Date('2021-08-31T00:00:00.000Z').valueOf();
sats=[{"BSTAR":"-0.00002707600000","PERIOD":"95.592","ARG_OF_PERICENTER":"59.6212","MEAN_MOTION":"15.06398190","OBJECT_NAME":"STARLINK-1400","NORAD_CAT_ID":"45700","ECCENTRICITY":"0.00006570","LAUNCH_DATE":"2020-06-04","FILE":"3105752","MEAN_ELEMENT_THEORY":"SGP4","ELEMENT_SET_NO":"999","CLASSIFICATION_TYPE":"U","OBJECT_TYPE":"PAYLOAD","REF_FRAME":"TEME","EPOCH":"2021-08-30T17:45:14.704128","SITE":"AFETR","TLE_LINE1":"1 45700U 20035AV  21242.73975352 -.00000684  00000-0 -27076-4 0  9994","CENTER_NAME":"EARTH","OBJECT_ID":"2020-035AV","APOAPSIS":"547.674","MEAN_MOTION_DOT":"-0.00000684","MEAN_ANOMALY":"300.4842","REV_AT_EPOCH":"6975","GP_ID":"183735697","TLE_LINE2":"2 45700  53.0542 252.5181 0000657  59.6212 300.4842 15.06398190 69754","COUNTRY_CODE":"US","DECAY_DATE":null,"PERIAPSIS":"546.764","RA_OF_ASC_NODE":"252.5181","SEMIMAJOR_AXIS":"6925.354","INCLINATION":"53.0542","MEAN_MOTION_DDOT":"0.0000000000000","RCS_SIZE":"LARGE","EPHEMERIS_TYPE":"0","TIME_SYSTEM":"UTC"},{"RCS_SIZE":"LARGE","MEAN_MOTION_DDOT":"0.0000000000000","EPHEMERIS_TYPE":"0","TIME_SYSTEM":"UTC","DECAY_DATE":null,"RA_OF_ASC_NODE":"253.5798","PERIAPSIS":"546.985","SEMIMAJOR_AXIS":"6925.329","INCLINATION":"53.0521","TLE_LINE2":"2 45701  53.0521 253.5798 0000301  72.7607 287.3414 15.06406423 70127","COUNTRY_CODE":"US","MEAN_MOTION_DOT":"0.00001018","APOAPSIS":"547.402","MEAN_ANOMALY":"287.3414","REV_AT_EPOCH":"7012","GP_ID":"183730387","OBJECT_ID":"2020-035AW","CLASSIFICATION_TYPE":"U","OBJECT_TYPE":"PAYLOAD","REF_FRAME":"TEME","EPOCH":"2021-08-30T12:05:33.513504","CENTER_NAME":"EARTH","SITE":"AFETR","TLE_LINE1":"1 45701U 20035AW  21242.50386011  .00001018  00000-0  87199-4 0  9990","OBJECT_NAME":"STARLINK-1403","PERIOD":"95.592","ARG_OF_PERICENTER":"72.7607","MEAN_MOTION":"15.06406423","NORAD_CAT_ID":"45701","ECCENTRICITY":"0.00003010","ELEMENT_SET_NO":"999","LAUNCH_DATE":"2020-06-04","FILE":"3105635","MEAN_ELEMENT_THEORY":"SGP4","BSTAR":"0.00008719900000"},{"MEAN_ANOMALY":"326.2015","MEAN_MOTION_DOT":"-0.00000308","APOAPSIS":"547.611","GP_ID":"183729639","REV_AT_EPOCH":"7012","TLE_LINE2":"2 45702  53.0531 253.6576 0000570  33.9010 326.2015 15.06399230 70126","COUNTRY_CODE":"US","PERIAPSIS":"546.821","RA_OF_ASC_NODE":"253.6576","DECAY_DATE":null,"INCLINATION":"53.0531","SEMIMAJOR_AXIS":"6925.351","EPHEMERIS_TYPE":"0","MEAN_MOTION_DDOT":"0.0000000000000","RCS_SIZE":"LARGE","TIME_SYSTEM":"UTC","BSTAR":"-0.00000182520000","NORAD_CAT_ID":"45702","PERIOD":"95.592","ARG_OF_PERICENTER":"33.9010","MEAN_MOTION":"15.06399230","OBJECT_NAME":"STARLINK-1405","MEAN_ELEMENT_THEORY":"SGP4","FILE":"3105635","LAUNCH_DATE":"2020-06-04","ELEMENT_SET_NO":"999","ECCENTRICITY":"0.00005700","OBJECT_TYPE":"PAYLOAD","CLASSIFICATION_TYPE":"U","REF_FRAME":"TEME","SITE":"AFETR","TLE_LINE1":"1 45702U 20035AX  21242.48543189 -.00000308  00000-0 -18252-5 0  9997","CENTER_NAME":"EARTH","EPOCH":"2021-08-30T11:39:01.315296","OBJECT_ID":"2020-035AX"},{"TLE_LINE2":"2 45703  53.0556 252.4790 0000746  74.2956 285.8116 15.06403158 69755","COUNTRY_CODE":"US","APOAPSIS":"547.721","MEAN_MOTION_DOT":"0.00000935","MEAN_ANOMALY":"285.8116","REV_AT_EPOCH":"6975","GP_ID":"183735946","RCS_SIZE":"LARGE","MEAN_MOTION_DDOT":"0.0000000000000","EPHEMERIS_TYPE":"0","TIME_SYSTEM":"UTC","DECAY_DATE":null,"RA_OF_ASC_NODE":"252.4790","PERIAPSIS":"546.687","SEMIMAJOR_AXIS":"6925.339","INCLINATION":"53.0556","OBJECT_NAME":"STARLINK-1407","PERIOD":"95.592","MEAN_MOTION":"15.06403158","ARG_OF_PERICENTER":"74.2956","NORAD_CAT_ID":"45703","ECCENTRICITY":"0.00007460","ELEMENT_SET_NO":"999","MEAN_ELEMENT_THEORY":"SGP4","FILE":"3105752","LAUNCH_DATE":"2020-06-04","BSTAR":"0.00008165000000","OBJECT_ID":"2020-035AY","REF_FRAME":"TEME","OBJECT_TYPE":"PAYLOAD","CLASSIFICATION_TYPE":"U","EPOCH":"2021-08-30T17:55:51.989664","CENTER_NAME":"EARTH","TLE_LINE1":"1 45703U 20035AY  21242.74712951  .00000935  00000-0  81650-4 0  9997","SITE":"AFETR"},{"EPHEMERIS_TYPE":"0","MEAN_MOTION_DDOT":"0.0000000000000","RCS_SIZE":"LARGE","TIME_SYSTEM":"UTC","PERIAPSIS":"546.669","RA_OF_ASC_NODE":"283.5364","DECAY_DATE":null,"INCLINATION":"53.0545","SEMIMAJOR_AXIS":"6925.352","TLE_LINE2":"2 45704  53.0545 283.5364 0000792 101.1036 259.0042 15.06398802 69712","COUNTRY_CODE":"US","MEAN_ANOMALY":"259.0042","MEAN_MOTION_DOT":"-0.00000047","APOAPSIS":"547.766","GP_ID":"183730141","REV_AT_EPOCH":"6971","OBJECT_ID":"2020-035AZ","OBJECT_TYPE":"PAYLOAD","CLASSIFICATION_TYPE":"U","REF_FRAME":"TEME","SITE":"AFETR","TLE_LINE1":"1 45704U 20035AZ  21242.51214508 -.00000047  00000-0  15746-4 0  9996","CENTER_NAME":"EARTH","EPOCH":"2021-08-30T12:17:29.334912","NORAD_CAT_ID":"45704","PERIOD":"95.592","MEAN_MOTION":"15.06398802","ARG_OF_PERICENTER":"101.1036","OBJECT_NAME":"STARLINK-1409","FILE":"3105635","LAUNCH_DATE":"2020-06-04","MEAN_ELEMENT_THEORY":"SGP4","ELEMENT_SET_NO":"999","ECCENTRICITY":"0.00007920","BSTAR":"0.00001574600000"},{"NORAD_CAT_ID":"45705","PERIOD":"95.592","MEAN_MOTION":"15.06395932","ARG_OF_PERICENTER":"72.3617","OBJECT_NAME":"STARLINK-1410","FILE":"3105635","LAUNCH_DATE":"2020-06-04","MEAN_ELEMENT_THEORY":"SGP4","ELEMENT_SET_NO":"999","ECCENTRICITY":"0.00002620","BSTAR":"-0.00000253180000","OBJECT_ID":"2020-035BA","CLASSIFICATION_TYPE":"U","OBJECT_TYPE":"PAYLOAD","REF_FRAME":"TEME","TLE_LINE1":"1 45705U 20035BA  21242.46791552 -.00000319  00000-0 -25318-5 0  9990","SITE":"AFETR","CENTER_NAME":"EARTH","EPOCH":"2021-08-30T11:13:47.900928","TLE_LINE2":"2 45705  53.0552 283.7424 0000262  72.3617 287.7400 15.06395932 69690","COUNTRY_CODE":"US","MEAN_ANOMALY":"287.7400","MEAN_MOTION_DOT":"-0.00000319","APOAPSIS":"547.407","GP_ID":"183730887","REV_AT_EPOCH":"6969","EPHEMERIS_TYPE":"0","MEAN_MOTION_DDOT":"0.0000000000000","RCS_SIZE":"LARGE","TIME_SYSTEM":"UTC","PERIAPSIS":"547.045","RA_OF_ASC_NODE":"283.7424","DECAY_DATE":null,"INCLINATION":"53.0552","SEMIMAJOR_AXIS":"6925.361"},{"ELEMENT_SET_NO":"999","FILE":"3105635","MEAN_ELEMENT_THEORY":"SGP4","LAUNCH_DATE":"2020-06-04","ECCENTRICITY":"0.00006600","NORAD_CAT_ID":"45706","OBJECT_NAME":"STARLINK-1411","MEAN_MOTION":"15.06397849","PERIOD":"95.592","ARG_OF_PERICENTER":"60.0036","BSTAR":"-0.00002664800000","OBJECT_ID":"2020-035BB","CENTER_NAME":"EARTH","SITE":"AFETR","TLE_LINE1":"1 45706U 20035BB  21242.32692385 -.00000678  00000-0 -26648-4 0  9994","EPOCH":"2021-08-30T07:50:46.220640","OBJECT_TYPE":"PAYLOAD","REF_FRAME":"TEME","CLASSIFICATION_TYPE":"U","COUNTRY_CODE":"US","TLE_LINE2":"2 45706  53.0529 254.3730 0000660  60.0036 300.1019 15.06397849 70091","GP_ID":"183729140","REV_AT_EPOCH":"7009","MEAN_ANOMALY":"300.1019","APOAPSIS":"547.677","MEAN_MOTION_DOT":"-0.00000678","TIME_SYSTEM":"UTC","EPHEMERIS_TYPE":"0","RCS_SIZE":"LARGE","MEAN_MOTION_DDOT":"0.0000000000000","INCLINATION":"53.0529","SEMIMAJOR_AXIS":"6925.355","RA_OF_ASC_NODE":"254.3730","PERIAPSIS":"546.763","DECAY_DATE":null},{"ECCENTRICITY":"0.00006190","FILE":"3105635","MEAN_ELEMENT_THEORY":"SGP4","LAUNCH_DATE":"2020-06-04","ELEMENT_SET_NO":"999","ARG_OF_PERICENTER":"66.5544","PERIOD":"95.592","MEAN_MOTION":"15.06404565","OBJECT_NAME":"STARLINK-1412","NORAD_CAT_ID":"45707","BSTAR":"0.00014306000000","OBJECT_ID":"2020-035BC","EPOCH":"2021-08-30T10:56:34.079136","SITE":"AFETR","TLE_LINE1":"1 45707U 20035BC  21242.45594999  .00001851  00000-0  14306-3 0  9990","CENTER_NAME":"EARTH","REF_FRAME":"TEME","OBJECT_TYPE":"PAYLOAD","CLASSIFICATION_TYPE":"U","COUNTRY_CODE":"US","TLE_LINE2":"2 45707  53.0535 253.7919 0000619  66.5544 293.5510 15.06404565 70129","REV_AT_EPOCH":"7012","GP_ID":"183729390","APOAPSIS":"547.628","MEAN_MOTION_DOT":"0.00001851","MEAN_ANOMALY":"293.5510","TIME_SYSTEM":"UTC","MEAN_MOTION_DDOT":"0.0000000000000","RCS_SIZE":"LARGE","EPHEMERIS_TYPE":"0","SEMIMAJOR_AXIS":"6925.335","INCLINATION":"53.0535","DECAY_DATE":null,"PERIAPSIS":"546.771","RA_OF_ASC_NODE":"253.7919"},{"REV_AT_EPOCH":"7013","GP_ID":"183730641","MEAN_MOTION_DOT":"0.00003194","APOAPSIS":"547.907","MEAN_ANOMALY":"288.1700","COUNTRY_CODE":"US","TLE_LINE2":"2 45708  53.0539 253.6123 0001047  71.9403 288.1700 15.06410173 70134","SEMIMAJOR_AXIS":"6925.317","INCLINATION":"53.0539","DECAY_DATE":null,"PERIAPSIS":"546.457","RA_OF_ASC_NODE":"253.6123","TIME_SYSTEM":"UTC","MEAN_MOTION_DDOT":"0.0000000000000","RCS_SIZE":"LARGE","EPHEMERIS_TYPE":"0","BSTAR":"0.00023315000000","ECCENTRICITY":"0.00010470","LAUNCH_DATE":"2020-06-04","FILE":"3105635","MEAN_ELEMENT_THEORY":"SGP4","ELEMENT_SET_NO":"999","PERIOD":"95.591","ARG_OF_PERICENTER":"71.9403","MEAN_MOTION":"15.06410173","OBJECT_NAME":"STARLINK-1418","NORAD_CAT_ID":"45708","EPOCH":"2021-08-30T11:54:55.828800","TLE_LINE1":"1 45708U 20035BD  21242.49647950  .00003194  00000-0  23315-3 0  9993","SITE":"AFETR","CENTER_NAME":"EARTH","OBJECT_TYPE":"PAYLOAD","CLASSIFICATION_TYPE":"U","REF_FRAME":"TEME","OBJECT_ID":"2020-035BD"},{"OBJECT_TYPE":"PAYLOAD","CLASSIFICATION_TYPE":"U","REF_FRAME":"TEME","EPOCH":"2021-08-30T11:12:28.892448","CENTER_NAME":"EARTH","TLE_LINE1":"1 45709U 20035BE  21242.46700107  .00001178  00000-0  97954-4 0  9996","SITE":"AFETR","OBJECT_ID":"2020-035BE","BSTAR":"0.00009795400000","OBJECT_NAME":"STARLINK-1421","ARG_OF_PERICENTER":"32.7299","PERIOD":"95.592","MEAN_MOTION":"15.06399984","NORAD_CAT_ID":"45709","ECCENTRICITY":"0.00005690","ELEMENT_SET_NO":"999","LAUNCH_DATE":"2020-06-04","FILE":"3105635","MEAN_ELEMENT_THEORY":"SGP4","DECAY_DATE":null,"RA_OF_ASC_NODE":"253.7418","PERIAPSIS":"546.820","SEMIMAJOR_AXIS":"6925.349","INCLINATION":"53.0523","RCS_SIZE":"LARGE","MEAN_MOTION_DDOT":"0.0000000000000","EPHEMERIS_TYPE":"0","TIME_SYSTEM":"UTC","APOAPSIS":"547.608","MEAN_MOTION_DOT":"0.00001178","MEAN_ANOMALY":"327.3725","REV_AT_EPOCH":"7008","GP_ID":"183730388","TLE_LINE2":"2 45709  53.0523 253.7418 0000569  32.7299 327.3725 15.06399984 70085","COUNTRY_CODE":"US"}];
